NORAD_CAT_ID,OBJECT_NAME,OBJECT_TYPE,EPOCH,MEAN_MOTION,ECCENTRICITY,INCLINATION,RA_OF_ASC_NODE,ARG_OF_PERICENTER,MEAN_ANOMALY,BSTAR,MEAN_MOTION_DOT,MEAN_MOTION_DDOT,TLE_LINE0,TLE_LINE1,TLE_LINE2,SEMIMAJOR_AXIS,PERIOD,APOGEE,PERIGEE,DECAYED
51750.0,STARLINK-3505,PAYLOAD,2023-09-27 12:39:02,15.08847534,0.0001481,53.2179,3.1815,67.9978,292.1172,0.00082322,0.0001284,0.0,0 STARLINK-3505,1 51750U 22016AN  23270.52711684  .00012840  00000-0  82322-3 0  9992,2 51750  53.2179   3.1815 0001481  67.9978 292.1172 15.08847534 88718,6917.857,95.437,540.747,538.698,0.0
51750.0,STARLINK-3505,PAYLOAD,2023-09-28 12:29:50,15.08838599,0.0001672,53.2174,358.7251,49.2308,310.8829,0.00017701,2.53e-05,0.0,0 STARLINK-3505,1 51750U 22016AN  23271.52072185  .00002530  00000-0  17701-3 0  9993,2 51750  53.2174 358.7251 0001672  49.2308 310.8829 15.08838599 89986,6917.885,95.438,540.906,538.593,0.0
51750.0,STARLINK-3505,PAYLOAD,2023-09-28 15:40:36,15.08843824,0.0001748,53.218,358.1286,47.1861,312.9278,0.00016037,2.265e-05,0.0,0 STARLINK-3505,1 51750U 22016AN  23271.65319881  .00002265  00000-0  16037-3 0  9990,2 51750  53.2180 358.1286 0001748  47.1861 312.9278 15.08843824 88886,6917.869,95.437,540.943,538.524,0.0
51750.0,STARLINK-3505,PAYLOAD,2023-09-29 12:20:37,15.08843987,0.0001495,53.2176,354.2632,78.1793,281.9367,0.0001994,2.887e-05,0.0,0 STARLINK-3505,1 51750U 22016AN  23272.51432014  .00002887  00000-0  19940-3 0  9996,2 51750  53.2176 354.2632 0001495  78.1793 281.9367 15.08843987 89010,6917.868,95.437,540.767,538.699,0.0
51750.0,STARLINK-3505,PAYLOAD,2023-09-30 12:11:23,15.0886078,0.0001477,53.2174,349.8052,71.0452,289.07,0.00039753,6.048e-05,0.0,0 STARLINK-3505,1 51750U 22016AN  23273.50791058  .00006048  00000-0  39753-3 0  9999,2 51750  53.2174 349.8052 0001477  71.0452 289.0700 15.08860780 90289,6917.817,95.436,540.704,538.66,0.0
51750.0,STARLINK-3505,PAYLOAD,2023-09-30 21:43:42,15.08852637,0.0001448,53.2168,348.0166,66.3116,293.8028,0.00020645,3e-05,0.0,0 STARLINK-3505,1 51750U 22016AN  23273.90535083  .00003000  00000-0  20645-3 0  9992,2 51750  53.2168 348.0166 0001448  66.3116 293.8028 15.08852637 90346,6917.842,95.437,540.708,538.705,0.0
51750.0,STARLINK-3505,PAYLOAD,2023-10-01 10:26:47,15.0884807,0.0001717,53.2189,345.6444,94.7694,265.3494,3.7769e-05,3.13e-06,0.0,0 STARLINK-3505,1 51750U 22016AN  23274.43527081  .00000313  00000-0  37769-4 0  9990,2 51750  53.2189 345.6444 0001717  94.7694 265.3494 15.08848070 90422,6917.856,95.437,540.909,538.533,0.0
51750.0,STARLINK-3505,PAYLOAD,2023-10-02 11:52:58,15.08827938,0.0001458,53.216,340.8824,72.4977,287.6174,-0.00028823,-4.871e-05,0.0,0 STARLINK-3505,1 51750U 22016AN  23275.49512298 -.00004871  00000-0 -28823-3 0  9996,2 51750  53.2160 340.8824 0001458  72.4977 287.6174 15.08827938 90588,6917.917,95.438,540.791,538.774,0.0
51750.0,STARLINK-3505,PAYLOAD,2023-10-02 13:28:21,15.08833359,0.000149,53.2163,340.5851,75.7207,284.395,-0.00019099,-3.326e-05,0.0,0 STARLINK-3505,1 51750U 22016AN  23275.56136059 -.00003326  00000-0 -19099-3 0  9990,2 51750  53.2163 340.5851 0001490  75.7207 284.3950 15.08833359 89472,6917.901,95.438,540.796,538.735,0.0
51750.0,STARLINK-3505,PAYLOAD,2023-10-03 05:22:13,15.08836541,0.0001474,53.2165,337.6118,76.2091,283.9065,0.00020721,3.011e-05,0.0,0 STARLINK-3505,1 51750U 22016AN  23276.22376405  .00003011  00000-0  20721-3 0  9998,2 51750  53.2165 337.6118 0001474  76.2091 283.9065 15.08836541 90690,6917.891,95.438,540.776,538.736,0.0
51750.0,STARLINK-3505,PAYLOAD,2023-10-03 11:43:45,15.08854638,0.0001576,53.2156,336.4218,70.0928,290.0233,0.0011482,0.0001804,0.0,0 STARLINK-3505,1 51750U 22016AN  23276.48872444  .00018040  00000-0  11482-2 0  9991,2 51750  53.2156 336.4218 0001576  70.0928 290.0233 15.08854638 89615,6917.836,95.437,540.791,538.61,0.0
51750.0,STARLINK-3505,PAYLOAD,2023-10-04 03:37:37,15.08858421,0.0001642,53.2152,333.448,75.726,284.3915,0.00085475,0.00013348,0.0,0 STARLINK-3505,1 51750U 22016AN  23277.15112354  .00013348  00000-0  85475-3 0  9993,2 51750  53.2152 333.4480 0001642  75.7260 284.3915 15.08858421 90837,6917.824,95.436,540.825,538.553,0.0
51750.0,STARLINK-3505,PAYLOAD,2023-10-04 11:34:32,15.08858647,0.0001577,53.2153,331.9611,78.0456,282.0713,0.0013231,0.00020843,0.0,0 STARLINK-3505,1 51750U 22016AN  23277.48232232  .00020843  00000-0  13231-2 0  9995,2 51750  53.2153 331.9611 0001577  78.0456 282.0713 15.08858647 89768,6917.823,95.436,540.779,538.597,0.0
51750.0,STARLINK-3505,PAYLOAD,2023-10-05 03:28:24,15.08850759,0.0001558,53.2162,328.9875,86.6692,273.4479,0.0010495,0.00016459,0.0,0 STARLINK-3505,1 51750U 22016AN  23278.14472434  .00016459  00000-0  10495-2 0  9996,2 51750  53.2162 328.9875 0001558  86.6692 273.4479 15.08850759 90987,6917.848,95.437,540.79,538.635,0.0
51750.0,STARLINK-3505,PAYLOAD,2023-10-05 09:49:56,15.08848267,0.000166,53.2165,327.798,88.316,271.8022,0.00087561,0.00013678,0.0,0 STARLINK-3505,1 51750U 22016AN  23278.40968504  .00013678  00000-0  87561-3 0  9992,2 51750  53.2165 327.7980 0001660  88.3160 271.8022 15.08848267 91020,6917.855,95.437,540.868,538.572,0.0
51750.0,STARLINK-3505,PAYLOAD,2023-10-05 20:57:38,15.08845031,0.0001538,53.2159,325.7171,86.9564,273.1604,0.00048451,7.432e-05,0.0,0 STARLINK-3505,1 51750U 22016AN  23278.87336484  .00007432  00000-0  48451-3 0  9995,2 51750  53.2159 325.7171 0001538  86.9564 273.1604 15.08845031 91093,6917.865,95.437,540.794,538.666,0.0
51750.0,STARLINK-3505,PAYLOAD,2023-10-06 09:40:43,15.08842466,0.0001634,53.217,323.3374,94.2215,265.8964,0.00011875,1.603e-05,0.0,0 STARLINK-3505,1 51750U 22016AN  23279.40328506  .00001603  00000-0  11875-3 0  9995,2 51750  53.2170 323.3374 0001634  94.2215 265.8964 15.08842466 91172,6917.873,95.437,540.868,538.607,0.0
51750.0,STARLINK-3505,PAYLOAD,2023-10-07 12:42:17,15.08846337,0.0001629,53.2164,318.2811,98.6785,261.4392,0.00021312,3.106e-05,0.0,0 STARLINK-3505,1 51750U 22016AN  23280.52936613  .00003106  00000-0  21312-3 0  9991,2 51750  53.2164 318.2811 0001629  98.6785 261.4392 15.08846337 90221,6917.861,95.437,540.853,538.599,0.0
51750.0,STARLINK-3505,PAYLOAD,2023-10-07 19:03:49,15.08840678,0.0001581,53.2159,317.0901,95.7771,264.3402,6.8255e-05,7.98e-06,0.0,0 STARLINK-3505,1 51750U 22016AN  23280.79432831  .00000798  00000-0  68255-4 0  9995,2 51750  53.2159 317.0901 0001581  95.7771 264.3402 15.08840678 91386,6917.878,95.438,540.837,538.65,0.0
51750.0,STARLINK-3505,PAYLOAD,2023-10-08 09:22:18,15.08845727,0.0001472,53.217,314.4181,93.2446,266.8715,0.00023011,3.377e-05,0.0,0 STARLINK-3505,1 51750U 22016AN  23281.39048768  .00003377  00000-0  23011-3 0  9990,2 51750  53.2170 314.4181 0001472  93.2446 266.8715 15.08845727 90351,6917.863,95.437,540.746,538.71,0.0
51750.0,STARLINK-3505,PAYLOAD,2023-10-08 18:54:36,15.08845987,0.000138,53.2169,312.6344,88.7428,271.3722,0.00021398,3.12e-05,0.0,0 STARLINK-3505,1 51750U 22016AN  23281.78792721  .00003120  00000-0  21398-3 0  9990,2 51750  53.2169 312.6344 0001380  88.7428 271.3722 15.08845987 90411,6917.862,95.437,540.682,538.772,0.0
51750.0,STARLINK-3505,PAYLOAD,2023-10-09 02:51:33,15.08837067,0.0001588,53.2173,311.1474,91.1419,268.9755,-9.0038e-07,-3.02e-06,0.0,0 STARLINK-3505,1 51750U 22016AN  23282.11913228 -.00000302  00000-0 -90038-6 0  9996,2 51750  53.2173 311.1474 0001588  91.1419 268.9755 15.08837067 91589,6917.889,95.438,540.853,538.656,0.0
51750.0,STARLINK-3505,PAYLOAD,2023-10-09 09:13:05,15.08841934,0.0001531,53.2179,309.9586,93.8296,266.2871,-1.8681e-05,-5.85e-06,0.0,0 STARLINK-3505,1 51750U 22016AN  23282.38408938 -.00000585  00000-0 -18681-4 0  9997,2 51750  53.2179 309.9586 0001531  93.8296 266.2871 15.08841934 90503,6917.874,95.437,540.799,538.68,0.0
51750.0,STARLINK-3505,PAYLOAD,2023-10-10 09:03:52,15.08848231,0.0001408,53.2171,305.4971,92.8962,267.2191,0.00015981,2.257e-05,0.0,0 STARLINK-3505,1 51750U 22016AN  23283.37768708  .00002257  00000-0  15981-3 0  9996,2 51750  53.2171 305.4971 0001408  92.8962 267.2191 15.08848231 91779,6917.855,95.437,540.694,538.746,0.0
51750.0,STARLINK-3505,PAYLOAD,2023-10-10 18:36:11,15.08845933,0.0001522,53.2167,303.7135,80.5222,279.5942,0.00012505,1.703e-05,0.0,0 STARLINK-3505,1 51750U 22016AN  23283.77512878  .00001703  00000-0  12505-3 0  9999,2 51750  53.2167 303.7135 0001522  80.5222 279.5942 15.08845933 90716,6917.862,95.437,540.78,538.674,0.0
51750.0,STARLINK-3505,PAYLOAD,2023-10-11 02:33:07,15.08826556,0.0001376,53.2172,302.2264,87.804,272.311,-7.067e-05,-1.412e-05,0.0,0 STARLINK-3505,1 51750U 22016AN  23284.10633835 -.00001412  00000-0 -70670-4 0  9991,2 51750  53.2172 302.2264 0001376  87.8040 272.3110 15.08826556 91881,6917.921,95.438,540.738,538.835,0.0
51750.0,STARLINK-3505,PAYLOAD,2023-10-11 08:54:40,15.08834314,0.0001604,53.2169,301.0361,84.2534,275.8641,-1.2089e-05,-4.8e-06,0.0,0 STARLINK-3505,1 51750U 22016AN  23284.37129683 -.00000480  00000-0 -12089-4 0  9995,2 51750  53.2169 301.0361 0001604  84.2534 275.8641 15.08834314 91928,6917.898,95.438,540.872,538.653,0.0
51750.0,STARLINK-3505,PAYLOAD,2023-10-12 10:20:49,15.08847782,0.000145,53.2148,296.2764,94.7673,265.3485,0.00028855,4.308e-05,0.0,0 STARLINK-3505,1 51750U 22016AN  23285.43113308  .00004308  00000-0  28855-3 0  9998,2 51750  53.2148 296.2764 0001450  94.7673 265.3485 15.08847782 90962,6917.857,95.437,540.725,538.719,0.0
51750.0,STARLINK-3505,PAYLOAD,2023-10-12 18:17:45,15.08842524,0.0001567,53.2158,294.7899,86.926,273.1911,0.00021512,3.138e-05,0.0,0 STARLINK-3505,1 51750U 22016AN  23285.76233662  .00003138  00000-0  21512-3 0  9993,2 51750  53.2158 294.7899 0001567  86.9260 273.1911 15.08842524 92130,6917.873,95.437,540.822,538.654,0.0
51750.0,STARLINK-3505,PAYLOAD,2023-10-13 10:11:37,15.08846779,0.0001839,53.2162,291.8146,97.9665,262.1536,0.00028831,4.304e-05,0.0,0 STARLINK-3505,1 51750U 22016AN  23286.42473614  .00004304  00000-0  28831-3 0  9997,2 51750  53.2162 291.8146 0001839  97.9665 262.1536 15.08846779 91115,6917.86,95.437,540.997,538.452,0.0
